{"type": "FeatureCollection", "features": [{"type": "Feature", "geometry": {"type": "Point", "coordinates": [121.5061957198941, 25.138635842670734]}, "properties": {"county": "臺北市", "township": "北投區", "parcel_count": 3931, "total_area_ha": 774.86}}, {"type": "Feature", "geometry": {"type": "Point", "coordinates": [121.54987932432695, 25.125157524358265]}, "properties": {"county": "臺北市", "township": "士林區", "parcel_count": 3252, "total_area_ha": 605.62}}, {"type": "Feature", "geometry": {"type": "Point", "coordinates": [121.57834580651537, 24.983357444593846]}, "properties": {"county": "臺北市", "township": "文山區", "parcel_count": 884, "total_area_ha": 376.12}}, {"type": "Feature", "geometry": {"type": "Point", "coordinates": [121.61541846515047, 25.026953563384144]}, "properties": {"county": "臺北市", "township": "南港區", "parcel_count": 514, "total_area_ha": 140.37}}, {"type": "Feature", "geometry": {"type": "Point", "coordinates": [121.5992479831175, 25.090932550205338]}, "properties": {"county": "臺北市", "township": "內湖區", "parcel_count": 920, "total_area_ha": 139.95}}, {"type": "Feature", "geometry": {"type": "Point", "coordinates": [121.57529310204676, 25.024526969374495]}, "properties": {"county": "臺北市", "township": "信義區", "parcel_count": 140, "total_area_ha": 21.0}}, {"type": "Feature", "geometry": {"type": "Point", "coordinates": [121.5409382455497, 25.08743882888949]}, "properties": {"county": "臺北市", "township": "中山區", "parcel_count": 33, "total_area_ha": 13.13}}, {"type": "Feature", "geometry": {"type": "Point", "coordinates": [121.54948489381518, 25.011416124071527]}, "properties": {"county": "臺北市", "township": "大安區", "parcel_count": 13, "total_area_ha": 9.41}}, {"type": "Feature", "geometry": {"type": "Point", "coordinates": [121.09835575635852, 24.2647378181946]}, "properties": {"county": "臺中市", "township": "和平區", "parcel_count": 10920, "total_area_ha": 4691.77}}, {"type": "Feature", "geometry": {"type": "Point", "coordinates": [120.83731731539424, 24.247996529858273]}, "properties": {"county": "臺中市", "township": "東勢區", "parcel_count": 12086, "total_area_ha": 4031.36}}, {"type": "Feature", "geometry": {"type": "Point", "coordinates": [120.63711289031986, 24.381227116057715]}, "properties": {"county": "臺中市", "township": "大甲區", "parcel_count": 21706, "total_area_ha": 3219.15}}, {"type": "Feature", "geometry": {"type": "Point", "coordinates": [120.70346599294892, 24.04744218346083]}, "properties": {"county": "臺中市", "township": "霧峰區", "parcel_count": 12441, "total_area_ha": 3194.28}}, {"type": "Feature", "geometry": {"type": "Point", "coordinates": [120.82778133765763, 24.183985838080382]}, "properties": {"county": "臺中市", "township": "新社區", "parcel_count": 13217, "total_area_ha": 3146.27}}, {"type": "Feature", "geometry": {"type": "Point", "coordinates": [120.58253365123217, 24.295519104443137]}, "properties": {"county": "臺中市", "township": "清水區", "parcel_count": 20348, "total_area_ha": 2918.84}}, {"type": "Feature", "geometry": {"type": "Point", "coordinates": [120.77058571234603, 24.114421253676294]}, "properties": {"county": "臺中市", "township": "太平區", "parcel_count": 6442, "total_area_ha": 2818.08}}, {"type": "Feature", "geometry": {"type": "Point", "coordinates": [120.705020259503, 24.3103282119005]}, "properties": {"county": "臺中市", "township": "后里區", "parcel_count": 15540, "total_area_ha": 2570.87}}, {"type": "Feature", "geometry": {"type": "Point", "coordinates": [120.66776706855441, 24.334907438987756]}, "properties": {"county": "臺中市", "township": "外埔區", "parcel_count": 15196, "total_area_ha": 2528.68}}, {"type": "Feature", "geometry": {"type": "Point", "coordinates": [120.593848667728, 24.363060060072705]}, "properties": {"county": "臺中市", "township": "大安區", "parcel_count": 13798, "total_area_ha": 1984.04}}, {"type": "Feature", "geometry": {"type": "Point", "coordinates": [120.53492858431751, 24.197236919504892]}, "properties": {"county": "臺中市", "township": "龍井區", "parcel_count": 7783, "total_area_ha": 1796.06}}, {"type": "Feature", "geometry": {"type": "Point", "coordinates": [120.6743994645102, 24.26397844390996]}, "properties": {"county": "臺中市", "township": "神岡區", "parcel_count": 11481, "total_area_ha": 1599.76}}, {"type": "Feature", "geometry": {"type": "Point", "coordinates": [120.63503250499926, 24.075481633765104]}, "properties": {"county": "臺中市", "township": "烏日區", "parcel_count": 8399, "total_area_ha": 1590.85}}, {"type": "Feature", "geometry": {"type": "Point", "coordinates": [120.5500730421032, 24.144443007648963]}, "properties": {"county": "臺中市", "township": "大肚區", "parcel_count": 6281, "total_area_ha": 1290.67}}, {"type": "Feature", "geometry": {"type": "Point", "coordinates": [120.73762708106908, 24.25222718084992]}, "properties": {"county": "臺中市", "township": "豐原區", "parcel_count": 8423, "total_area_ha": 1263.47}}, {"type": "Feature", "geometry": {"type": "Point", "coordinates": [120.64626051398079, 24.227040143007684]}, "properties": {"county": "臺中市", "township": "大雅區", "parcel_count": 8128, "total_area_ha": 1181.71}}, {"type": "Feature", "geometry": {"type": "Point", "coordinates": [120.58256790043355, 24.23405795096262]}, "properties": {"county": "臺中市", "township": "沙鹿區", "parcel_count": 4691, "total_area_ha": 1100.1}}, {"type": "Feature", "geometry": {"type": "Point", "coordinates": [120.75291860877745, 24.187273984356747]}, "properties": {"county": "臺中市", "township": "北屯區", "parcel_count": 3460, "total_area_ha": 1056.44}}, {"type": "Feature", "geometry": {"type": "Point", "coordinates": [120.708264097144, 24.21289748905128]}, "properties": {"county": "臺中市", "township": "潭子區", "parcel_count": 6673, "total_area_ha": 945.66}}, {"type": "Feature", "geometry": {"type": "Point", "coordinates": [120.62794886680517, 24.188979153033163]}, "properties": {"county": "臺中市", "township": "西屯區", "parcel_count": 3895, "total_area_ha": 647.36}}, {"type": "Feature", "geometry": {"type": "Point", "coordinates": [120.79164387236482, 24.264782901626372]}, "properties": {"county": "臺中市", "township": "石岡區", "parcel_count": 3590, "total_area_ha": 614.62}}, {"type": "Feature", "geometry": {"type": "Point", "coordinates": [120.6849138704216, 24.094197163646932]}, "properties": {"county": "臺中市", "township": "大里區", "parcel_count": 4264, "total_area_ha": 600.76}}, {"type": "Feature", "geometry": {"type": "Point", "coordinates": [120.5407336337949, 24.237541051269936]}, "properties": {"county": "臺中市", "township": "梧棲區", "parcel_count": 3245, "total_area_ha": 570.27}}, {"type": "Feature", "geometry": {"type": "Point", "coordinates": [120.61108016575815, 24.13811294045944]}, "properties": {"county": "臺中市", "township": "南屯區", "parcel_count": 3343, "total_area_ha": 489.06}}, {"type": "Feature", "geometry": {"type": "Point", "coordinates": [120.65697796897356, 24.11597728278709]}, "properties": {"county": "臺中市", "township": "南區", "parcel_count": 100, "total_area_ha": 18.11}}, {"type": "Feature", "geometry": {"type": "Point", "coordinates": [120.70249484671757, 24.13676762779248]}, "properties": {"county": "臺中市", "township": "東區", "parcel_count": 143, "total_area_ha": 14.72}}, {"type": "Feature", "geometry": {"type": "Point", "coordinates": [120.68205758253664, 24.161653904300262]}, "properties": {"county": "臺中市", "township": "北區", "parcel_count": 30, "total_area_ha": 2.6}}, {"type": "Feature", "geometry": {"type": "Point", "coordinates": [120.66113333198075, 24.14264758852401]}, "properties": {"county": "臺中市", "township": "西區", "parcel_count": 12, "total_area_ha": 0.77}}, {"type": "Feature", "geometry": {"type": "Point", "coordinates": [121.68710901709167, 25.115256904180818]}, "properties": {"county": "基隆市", "township": "七堵區", "parcel_count": 1289, "total_area_ha": 266.53}}, {"type": "Feature", "geometry": {"type": "Point", "coordinates": [121.7095445861087, 25.136016447685133]}, "properties": {"county": "基隆市", "township": "安樂區", "parcel_count": 409, "total_area_ha": 109.03}}, {"type": "Feature", "geometry": {"type": "Point", "coordinates": [121.72478100183596, 25.150158602850027]}, "properties": {"county": "基隆市", "township": "中山區", "parcel_count": 318, "total_area_ha": 56.0}}, {"type": "Feature", "geometry": {"type": "Point", "coordinates": [121.7415994116614, 25.092239163689744]}, "properties": {"county": "基隆市", "township": "暖暖區", "parcel_count": 227, "total_area_ha": 31.45}}, {"type": "Feature", "geometry": {"type": "Point", "coordinates": [121.77850640620977, 25.125627240635453]}, "properties": {"county": "基隆市", "township": "信義區", "parcel_count": 119, "total_area_ha": 21.96}}, {"type": "Feature", "geometry": {"type": "Point", "coordinates": [121.78808519951939, 25.138081685477513]}, "properties": {"county": "基隆市", "township": "中正區", "parcel_count": 104, "total_area_ha": 18.68}}, {"type": "Feature", "geometry": {"type": "Point", "coordinates": [121.74210038428318, 25.1189686005866]}, "properties": {"county": "基隆市", "township": "仁愛區", "parcel_count": 53, "total_area_ha": 4.27}}, {"type": "Feature", "geometry": {"type": "Point", "coordinates": [120.10561679213215, 23.124390253013356]}, "properties": {"county": "臺南市", "township": "七股區", "parcel_count": 16748, "total_area_ha": 9483.14}}, {"type": "Feature", "geometry": {"type": "Point", "coordinates": [120.14309580267572, 23.050092505041448]}, "properties": {"county": "臺南市", "township": "安南區", "parcel_count": 15759, "total_area_ha": 6613.37}}, {"type": "Feature", "geometry": {"type": "Point", "coordinates": [120.44520399389422, 23.358009932266178]}, "properties": {"county": "臺南市", "township": "白河區", "parcel_count": 17332, "total_area_ha": 5810.94}}, {"type": "Feature", "geometry": {"type": "Point", "coordinates": [120.34804926027716, 23.36188565685468]}, "properties": {"county": "臺南市", "township": "後壁區", "parcel_count": 18038, "total_area_ha": 5462.35}}, {"type": "Feature", "geometry": {"type": "Point", "coordinates": [120.43077790875644, 23.287256013861]}, "properties": {"county": "臺南市", "township": "東山區", "parcel_count": 14358, "total_area_ha": 5423.09}}, {"type": "Feature", "geometry": {"type": "Point", "coordinates": [120.1300527996616, 23.27900241200459]}, "properties": {"county": "臺南市", "township": "北門區", "parcel_count": 7931, "total_area_ha": 4082.12}}, {"type": "Feature", "geometry": {"type": "Point", "coordinates": [120.18492103862309, 23.252496710180377]}, "properties": {"county": "臺南市", "township": "學甲區", "parcel_count": 11895, "total_area_ha": 3821.19}}, {"type": "Feature", "geometry": {"type": "Point", "coordinates": [120.247171710674, 23.29714427423863]}, "properties": {"county": "臺南市", "township": "鹽水區", "parcel_count": 12766, "total_area_ha": 3741.72}}, {"type": "Feature", "geometry": {"type": "Point", "coordinates": [120.24053528257647, 23.182042610777124]}, "properties": {"county": "臺南市", "township": "麻豆區", "parcel_count": 11429, "total_area_ha": 3656.11}}, {"type": "Feature", "geometry": {"type": "Point", "coordinates": [120.50928663140266, 23.178323331467606]}, "properties": {"county": "臺南市", "township": "楠西區", "parcel_count": 9474, "total_area_ha": 3646.92}}, {"type": "Feature", "geometry": {"type": "Point", "coordinates": [120.29451832301301, 22.944486811022664]}, "properties": {"county": "臺南市", "township": "歸仁區", "parcel_count": 12244, "total_area_ha": 3582.32}}, {"type": "Feature", "geometry": {"type": "Point", "coordinates": [120.34758804654325, 23.27162965185438]}, "properties": {"county": "臺南市", "township": "柳營區", "parcel_count": 12112, "total_area_ha": 3416.95}}, {"type": "Feature", "geometry": {"type": "Point", "coordinates": [120.1296530383612, 23.20675577916063]}, "properties": {"county": "臺南市", "township": "將軍區", "parcel_count": 10633, "total_area_ha": 3329.67}}, {"type": "Feature", "geometry": {"type": "Point", "coordinates": [120.45767830346227, 23.11446249173874]}, "properties": {"county": "臺南市", "township": "玉井區", "parcel_count": 8494, "total_area_ha": 3295.46}}, {"type": "Feature", "geometry": {"type": "Point", "coordinates": [120.29867840476437, 23.144170752586046]}, "properties": {"county": "臺南市", "township": "善化區", "parcel_count": 10154, "total_area_ha": 3286.8}}, {"type": "Feature", "geometry": {"type": "Point", "coordinates": [120.500153616077, 23.06957816261289]}, "properties": {"county": "臺南市", "township": "南化區", "parcel_count": 9883, "total_area_ha": 3248.83}}, {"type": "Feature", "geometry": {"type": "Point", "coordinates": [120.33538324398431, 23.1921208214091]}, "properties": {"county": "臺南市", "township": "官田區", "parcel_count": 10708, "total_area_ha": 3169.61}}, {"type": "Feature", "geometry": {"type": "Point", "coordinates": [120.29563884492079, 23.080705349853165]}, "properties": {"county": "臺南市", "township": "新市區", "parcel_count": 9189, "total_area_ha": 2880.3}}, {"type": "Feature", "geometry": {"type": "Point", "coordinates": [120.33361825782329, 22.954837848863967]}, "properties": {"county": "臺南市", "township": "關廟區", "parcel_count": 9490, "total_area_ha": 2631.4}}, {"type": "Feature", "geometry": {"type": "Point", "coordinates": [120.3268585967655, 23.035559649425206]}, "properties": {"county": "臺南市", "township": "新化區", "parcel_count": 10078, "total_area_ha": 2604.08}}, {"type": "Feature", "geometry": {"type": "Point", "coordinates": [120.3876532043624, 23.13708239044605]}, "properties": {"county": "臺南市", "township": "大內區", "parcel_count": 8518, "total_area_ha": 2597.21}}, {"type": "Feature", "geometry": {"type": "Point", "coordinates": [120.17865027734263, 23.166874481260663]}, "properties": {"county": "臺南市", "township": "佳里區", "parcel_count": 13401, "total_area_ha": 2589.22}}, {"type": "Feature", "geometry": {"type": "Point", "coordinates": [120.26482329866009, 23.230904373146565]}, "properties": {"county": "臺南市", "township": "下營區", "parcel_count": 9737, "total_area_ha": 2437.55}}, {"type": "Feature", "geometry": {"type": "Point", "coordinates": [120.20026289850945, 23.12586503943976]}, "properties": {"county": "臺南市", "township": "西港區", "parcel_count": 8986, "total_area_ha": 2396.93}}, {"type": "Feature", "geometry": {"type": "Point", "coordinates": [120.35178996312777, 23.235093258457958]}, "properties": {"county": "臺南市", "township": "六甲區", "parcel_count": 7773, "total_area_ha": 2390.19}}, {"type": "Feature", "geometry": {"type": "Point", "coordinates": [120.2432018203377, 22.937635514656122]}, "properties": {"county": "臺南市", "township": "仁德區", "parcel_count": 7109, "total_area_ha": 2243.25}}, {"type": "Feature", "geometry": {"type": "Point", "coordinates": [120.22732456970948, 23.097445378330143]}, "properties": {"county": "臺南市", "township": "安定區", "parcel_count": 8619, "total_area_ha": 1982.04}}, {"type": "Feature", "geometry": {"type": "Point", "coordinates": [120.29046474764387, 23.29927946299956]}, "properties": {"county": "臺南市", "township": "新營區", "parcel_count": 7491, "total_area_ha": 1936.26}}, {"type": "Feature", "geometry": {"type": "Point", "coordinates": [120.40882812411493, 23.035730112511146]}, "properties": {"county": "臺南市", "township": "左鎮區", "parcel_count": 5065, "total_area_ha": 1574.05}}, {"type": "Feature", "geometry": {"type": "Point", "coordinates": [120.36266811756155, 23.098517985461218]}, "properties": {"county": "臺南市", "township": "山上區", "parcel_count": 4433, "total_area_ha": 1227.71}}, {"type": "Feature", "geometry": {"type": "Point", "coordinates": [120.378948627022, 22.955998481275117]}, "properties": {"county": "臺南市", "township": "龍崎區", "parcel_count": 2309, "total_area_ha": 1118.85}}, {"type": "Feature", "geometry": {"type": "Point", "coordinates": [120.26391342198266, 23.029034138267086]}, "properties": {"county": "臺南市", "township": "永康區", "parcel_count": 3322, "total_area_ha": 849.03}}, {"type": "Feature", "geometry": {"type": "Point", "coordinates": [120.18857518917285, 22.945624653354734]}, "properties": {"county": "臺南市", "township": "南區", "parcel_count": 2492, "total_area_ha": 546.36}}, {"type": "Feature", "geometry": {"type": "Point", "coordinates": [120.1732330524364, 23.002855225504018]}, "properties": {"county": "臺南市", "township": "中西區", "parcel_count": 46, "total_area_ha": 22.78}}, {"type": "Feature", "geometry": {"type": "Point", "coordinates": [120.15984472777484, 22.98631375278176]}, "properties": {"county": "臺南市", "township": "安平區", "parcel_count": 114, "total_area_ha": 22.74}}, {"type": "Feature", "geometry": {"type": "Point", "coordinates": [120.22337140136243, 22.969879352398326]}, "properties": {"county": "臺南市", "township": "東區", "parcel_count": 60, "total_area_ha": 16.18}}, {"type": "Feature", "geometry": {"type": "Point", "coordinates": [120.18560787807557, 23.009492719283312]}, "properties": {"county": "臺南市", "township": "北區", "parcel_count": 32, "total_area_ha": 7.32}}, {"type": "Feature", "geometry": {"type": "Point", "coordinates": [120.5473616629666, 22.880491135473996]}, "properties": {"county": "高雄市", "township": "美濃區", "parcel_count": 24078, "total_area_ha": 4691.78}}, {"type": "Feature", "geometry": {"type": "Point", "coordinates": [120.48331051868404, 22.864298336632448]}, "properties": {"county": "高雄市", "township": "旗山區", "parcel_count": 9929, "total_area_ha": 3558.62}}, {"type": "Feature", "geometry": {"type": "Point", "coordinates": [120.41510893760011, 22.595504519046344]}, "properties": {"county": "高雄市", "township": "大寮區", "parcel_count": 11979, "total_area_ha": 2855.59}}, {"type": "Feature", "geometry": {"type": "Point", "coordinates": [120.26665362996313, 22.86100759733603]}, "properties": {"county": "高雄市", "township": "路竹區", "parcel_count": 12355, "total_area_ha": 2755.37}}, {"type": "Feature", "geometry": {"type": "Point", "coordinates": [120.55781601836337, 22.989448317477198]}, "properties": {"county": "高雄市", "township": "杉林區", "parcel_count": 8867, "total_area_ha": 2710.59}}, {"type": "Feature", "geometry": {"type": "Point", "coordinates": [120.42548197344517, 22.711145222833036]}, "properties": {"county": "高雄市", "township": "大樹區", "parcel_count": 9440, "total_area_ha": 2674.46}}, {"type": "Feature", "geometry": {"type": "Point", "coordinates": [120.36017588602189, 22.785421145407465]}, "properties": {"county": "高雄市", "township": "燕巢區", "parcel_count": 7891, "total_area_ha": 2614.96}}, {"type": "Feature", "geometry": {"type": "Point", "coordinates": [120.47372666608234, 22.960097233420214]}, "properties": {"county": "高雄市", "township": "內門區", "parcel_count": 11030, "total_area_ha": 2495.68}}, {"type": "Feature", "geometry": {"type": "Point", "coordinates": [120.65564671415926, 22.99327115789179]}, "properties": {"county": "高雄市", "township": "六龜區", "parcel_count": 9174, "total_area_ha": 2157.91}}, {"type": "Feature", "geometry": {"type": "Point", "coordinates": [120.31889626549288, 22.869589368921986]}, "properties": {"county": "高雄市", "township": "阿蓮區", "parcel_count": 9128, "total_area_ha": 2157.55}}, {"type": "Feature", "geometry": {"type": "Point", "coordinates": [120.30081657893928, 22.806698596954213]}, "properties": {"county": "高雄市", "township": "岡山區", "parcel_count": 5264, "total_area_ha": 1823.59}}, {"type": "Feature", "geometry": {"type": "Point", "coordinates": [120.38831319512, 22.860254684879568]}, "properties": {"county": "高雄市", "township": "田寮區", "parcel_count": 5961, "total_area_ha": 1555.66}}, {"type": "Feature", "geometry": {"type": "Point", "coordinates": [120.69293975525828, 23.25673229535563]}, "properties": {"county": "高雄市", "township": "那瑪夏區", "parcel_count": 2906, "total_area_ha": 1506.84}}, {"type": "Feature", "geometry": {"type": "Point", "coordinates": [120.7650185018124, 23.168380521485243]}, "properties": {"county": "高雄市", "township": "桃源區", "parcel_count": 1981, "total_area_ha": 1435.54}}, {"type": "Feature", "geometry": {"type": "Point", "coordinates": [120.2292202222966, 22.820965327764885]}, "properties": {"county": "高雄市", "township": "永安區", "parcel_count": 4989, "total_area_ha": 1377.67}}, {"type": "Feature", "geometry": {"type": "Point", "coordinates": [120.29729399863938, 22.753587704671652]}, "properties": {"county": "高雄市", "township": "橋頭區", "parcel_count": 4528, "total_area_ha": 1294.13}}, {"type": "Feature", "geometry": {"type": "Point", "coordinates": [120.22510673472598, 22.892224509708495]}, "properties": {"county": "高雄市", "township": "湖內區", "parcel_count": 4511, "total_area_ha": 1288.28}}, {"type": "Feature", "geometry": {"type": "Point", "coordinates": [120.5985234857736, 23.092451233583017]}, "properties": {"county": "高雄市", "township": "甲仙區", "parcel_count": 2764, "total_area_ha": 1166.6}}, {"type": "Feature", "geometry": {"type": "Point", "coordinates": [120.39726272488278, 22.511077549233594]}, "properties": {"county": "高雄市", "township": "林園區", "parcel_count": 5383, "total_area_ha": 949.07}}, {"type": "Feature", "geometry": {"type": "Point", "coordinates": [120.36805168557152, 22.74154959066495]}, "properties": {"county": "高雄市", "township": "大社區", "parcel_count": 3702, "total_area_ha": 915.16}}, {"type": "Feature", "geometry": {"type": "Point", "coordinates": [120.23704071319959, 22.779833011595706]}, "properties": {"county": "高雄市", "township": "彌陀區", "parcel_count": 2960, "total_area_ha": 812.85}}, {"type": "Feature", "geometry": {"type": "Point", "coordinates": [120.26012003725066, 22.75024538725113]}, "properties": {"county": "高雄市", "township": "梓官區", "parcel_count": 5261, "total_area_ha": 589.4}}, {"type": "Feature", "geometry": {"type": "Point", "coordinates": [120.35984743042576, 22.70243041101425]}, "properties": {"county": "高雄市", "township": "仁武區", "parcel_count": 1529, "total_area_ha": 557.78}}, {"type": "Feature", "geometry": {"type": "Point", "coordinates": [120.20198582899691, 22.884438363258568]}, "properties": {"county": "高雄市", "township": "茄萣區", "parcel_count": 1124, "total_area_ha": 530.5}}, {"type": "Feature", "geometry": {"type": "Point", "coordinates": [120.38112613758457, 22.659755251500382]}, "properties": {"county": "高雄市", "township": "鳥松區", "parcel_count": 2560, "total_area_ha": 508.63}}, {"type": "Feature", "geometry": {"type": "Point", "coordinates": [120.28532163542141, 22.726928031456726]}, "properties": {"county": "高雄市", "township": "楠梓區", "parcel_count": 1225, "total_area_ha": 333.52}}, {"type": "Feature", "geometry": {"type": "Point", "coordinates": [120.36925501830115, 22.567104537809122]}, "properties": {"county": "高雄市", "township": "小港區", "parcel_count": 1689, "total_area_ha": 272.89}}, {"type": "Feature", "geometry": {"type": "Point", "coordinates": [120.68390937058359, 22.90218075114812]}, "properties": {"county": "高雄市", "township": "茂林區", "parcel_count": 333, "total_area_ha": 179.54}}, {"type": "Feature", "geometry": {"type": "Point", "coordinates": [120.3595911123506, 22.618003740471885]}, "properties": {"county": "高雄市", "township": "鳳山區", "parcel_count": 820, "total_area_ha": 144.65}}, {"type": "Feature", "geometry": {"type": "Point", "coordinates": [120.32993763857026, 22.67045807720658]}, "properties": {"county": "高雄市", "township": "三民區", "parcel_count": 188, "total_area_ha": 30.61}}, {"type": "Feature", "geometry": {"type": "Point", "coordinates": [120.30430967787856, 22.682822821988093]}, "properties": {"county": "高雄市", "township": "左營區", "parcel_count": 184, "total_area_ha": 10.59}}, {"type": "Feature", "geometry": {"type": "Point", "coordinates": [120.32759270997244, 22.588063002905475]}, "properties": {"county": "高雄市", "township": "前鎮區", "parcel_count": 100, "total_area_ha": 8.19}}, {"type": "Feature", "geometry": {"type": "Point", "coordinates": [120.28970471603552, 22.654964182211362]}, "properties": {"county": "高雄市", "township": "鼓山區", "parcel_count": 79, "total_area_ha": 7.46}}, {"type": "Feature", "geometry": {"type": "Point", "coordinates": [120.32573761224985, 22.62016268535448]}, "properties": {"county": "高雄市", "township": "苓雅區", "parcel_count": 26, "total_area_ha": 1.47}}, {"type": "Feature", "geometry": {"type": "Point", "coordinates": [120.28273551832513, 22.594035444611883]}, "properties": {"county": "高雄市", "township": "旗津區", "parcel_count": 32, "total_area_ha": 1.3}}, {"type": "Feature", "geometry": {"type": "Point", "coordinates": [120.2948827428793, 22.627778290748875]}, "properties": {"county": "高雄市", "township": "前金區", "parcel_count": 1, "total_area_ha": 0.03}}, {"type": "Feature", "geometry": {"type": "Point", "coordinates": [120.28645441229379, 22.628202955328323]}, "properties": {"county": "高雄市", "township": "鹽埕區", "parcel_count": 1, "total_area_ha": 0.01}}, {"type": "Feature", "geometry": {"type": "Point", "coordinates": [121.40966866290894, 24.8958650243832]}, "properties": {"county": "新北市", "township": "三峽區", "parcel_count": 6940, "total_area_ha": 2042.6}}, {"type": "Feature", "geometry": {"type": "Point", "coordinates": [121.46622831188671, 25.20235422747735]}, "properties": {"county": "新北市", "township": "淡水區", "parcel_count": 10803, "total_area_ha": 1568.34}}, {"type": "Feature", "geometry": {"type": "Point", "coordinates": [121.50603192285239, 25.241369340622498]}, "properties": {"county": "新北市", "township": "三芝區", "parcel_count": 9665, "total_area_ha": 1326.14}}, {"type": "Feature", "geometry": {"type": "Point", "coordinates": [121.53764623206794, 24.935393647986597]}, "properties": {"county": "新北市", "township": "新店區", "parcel_count": 3390, "total_area_ha": 822.2}}, {"type": "Feature", "geometry": {"type": "Point", "coordinates": [121.71394000924819, 24.939316304464537]}, "properties": {"county": "新北市", "township": "坪林區", "parcel_count": 4501, "total_area_ha": 811.34}}, {"type": "Feature", "geometry": {"type": "Point", "coordinates": [121.5634250070979, 25.26976628423695]}, "properties": {"county": "新北市", "township": "石門區", "parcel_count": 2988, "total_area_ha": 765.01}}, {"type": "Feature", "geometry": {"type": "Point", "coordinates": [121.61473133490075, 25.227428202559143]}, "properties": {"county": "新北市", "township": "金山區", "parcel_count": 3575, "total_area_ha": 700.33}}, {"type": "Feature", "geometry": {"type": "Point", "coordinates": [121.84186721907682, 25.01632220739559]}, "properties": {"county": "新北市", "township": "雙溪區", "parcel_count": 3318, "total_area_ha": 609.59}}, {"type": "Feature", "geometry": {"type": "Point", "coordinates": [121.35296500316834, 25.102926447929352]}, "properties": {"county": "新北市", "township": "林口區", "parcel_count": 2579, "total_area_ha": 603.87}}, {"type": "Feature", "geometry": {"type": "Point", "coordinates": [121.64352003554642, 25.180188588568075]}, "properties": {"county": "新北市", "township": "萬里區", "parcel_count": 2619, "total_area_ha": 569.45}}, {"type": "Feature", "geometry": {"type": "Point", "coordinates": [121.40900695781856, 25.13510296765844]}, "properties": {"county": "新北市", "township": "八里區", "parcel_count": 2185, "total_area_ha": 558.59}}, {"type": "Feature", "geometry": {"type": "Point", "coordinates": [121.91162278297851, 25.020726513823636]}, "properties": {"county": "新北市", "township": "貢寮區", "parcel_count": 4220, "total_area_ha": 513.34}}, {"type": "Feature", "geometry": {"type": "Point", "coordinates": [121.4271066435461, 25.10364751438465]}, "properties": {"county": "新北市", "township": "五股區", "parcel_count": 1376, "total_area_ha": 488.73}}, {"type": "Feature", "geometry": {"type": "Point", "coordinates": [121.66072306121076, 24.97466128193749]}, "properties": {"county": "新北市", "township": "石碇區", "parcel_count": 2268, "total_area_ha": 434.76}}, {"type": "Feature", "geometry": {"type": "Point", "coordinates": [121.64943930871783, 25.067322519291785]}, "properties": {"county": "新北市", "township": "汐止區", "parcel_count": 1986, "total_area_ha": 397.94}}, {"type": "Feature", "geometry": {"type": "Point", "coordinates": [121.39539843066285, 24.970036601197773]}, "properties": {"county": "新北市", "township": "樹林區", "parcel_count": 2537, "total_area_ha": 393.38}}, {"type": "Feature", "geometry": {"type": "Point", "coordinates": [121.61589778097579, 25.00370484933947]}, "properties": {"county": "新北市", "township": "深坑區", "parcel_count": 885, "total_area_ha": 307.05}}, {"type": "Feature", "geometry": {"type": "Point", "coordinates": [121.34169766358404, 24.94974713631592]}, "properties": {"county": "新北市", "township": "鶯歌區", "parcel_count": 1857, "total_area_ha": 260.86}}, {"type": "Feature", "geometry": {"type": "Point", "coordinates": [121.44885357073477, 24.963577995323202]}, "properties": {"county": "新北市", "township": "土城區", "parcel_count": 1330, "total_area_ha": 257.48}}, {"type": "Feature", "geometry": {"type": "Point", "coordinates": [121.75235811253621, 25.02656933756281]}, "properties": {"county": "新北市", "township": "平溪區", "parcel_count": 1249, "total_area_ha": 158.57}}, {"type": "Feature", "geometry": {"type": "Point", "coordinates": [121.80310663686497, 25.100892433174835]}, "properties": {"county": "新北市", "township": "瑞芳區", "parcel_count": 1095, "total_area_ha": 157.38}}, {"type": "Feature", "geometry": {"type": "Point", "coordinates": [121.52651025330279, 24.832662108646684]}, "properties": {"county": "新北市", "township": "烏來區", "parcel_count": 481, "total_area_ha": 117.97}}, {"type": "Feature", "geometry": {"type": "Point", "coordinates": [121.4343952610089, 25.031270530743658]}, "properties": {"county": "新北市", "township": "新莊區", "parcel_count": 788, "total_area_ha": 106.33}}, {"type": "Feature", "geometry": {"type": "Point", "coordinates": [121.48893805536513, 24.982667082640997]}, "properties": {"county": "新北市", "township": "中和區", "parcel_count": 504, "total_area_ha": 86.77}}, {"type": "Feature", "geometry": {"type": "Point", "coordinates": [121.42258540224447, 25.053149646307705]}, "properties": {"county": "新北市", "township": "泰山區", "parcel_count": 397, "total_area_ha": 70.54}}, {"type": "Feature", "geometry": {"type": "Point", "coordinates": [121.47749010061754, 25.093219801511037]}, "properties": {"county": "新北市", "township": "蘆洲區", "parcel_count": 456, "total_area_ha": 52.05}}, {"type": "Feature", "geometry": {"type": "Point", "coordinates": [121.45007959032202, 25.005085665845552]}, "properties": {"county": "新北市", "township": "板橋區", "parcel_count": 209, "total_area_ha": 36.21}}, {"type": "Feature", "geometry": {"type": "Point", "coordinates": [121.52673687900877, 25.00759651082952]}, "properties": {"county": "新北市", "township": "永和區", "parcel_count": 56, "total_area_ha": 9.32}}, {"type": "Feature", "geometry": {"type": "Point", "coordinates": [121.48365422521987, 25.069139315503794]}, "properties": {"county": "新北市", "township": "三重區", "parcel_count": 80, "total_area_ha": 5.56}}, {"type": "Feature", "geometry": {"type": "Point", "coordinates": [121.67378020565532, 24.673808501869548]}, "properties": {"county": "宜蘭縣", "township": "三星鄉", "parcel_count": 18284, "total_area_ha": 3913.02}}, {"type": "Feature", "geometry": {"type": "Point", "coordinates": [121.76599186929936, 24.64857113331279]}, "properties": {"county": "宜蘭縣", "township": "冬山鄉", "parcel_count": 14386, "total_area_ha": 3057.47}}, {"type": "Feature", "geometry": {"type": "Point", "coordinates": [121.70277195492466, 24.733729763353153]}, "properties": {"county": "宜蘭縣", "township": "員山鄉", "parcel_count": 14308, "total_area_ha": 2694.48}}, {"type": "Feature", "geometry": {"type": "Point", "coordinates": [121.79936501700935, 24.75426179188133]}, "properties": {"county": "宜蘭縣", "township": "壯圍鄉", "parcel_count": 11848, "total_area_ha": 2603.7}}, {"type": "Feature", "geometry": {"type": "Point", "coordinates": [121.77491438780565, 24.804146126784012]}, "properties": {"county": "宜蘭縣", "township": "礁溪鄉", "parcel_count": 11141, "total_area_ha": 2298.05}}, {"type": "Feature", "geometry": {"type": "Point", "coordinates": [121.50837695888819, 24.56947194017145]}, "properties": {"county": "宜蘭縣", "township": "大同鄉", "parcel_count": 4311, "total_area_ha": 2118.68}}, {"type": "Feature", "geometry": {"type": "Point", "coordinates": [121.80181232657762, 24.691298350322494]}, "properties": {"county": "宜蘭縣", "township": "五結鄉", "parcel_count": 8546, "total_area_ha": 1788.84}}, {"type": "Feature", "geometry": {"type": "Point", "coordinates": [121.7592822511106, 24.749183057412598]}, "properties": {"county": "宜蘭縣", "township": "宜蘭市", "parcel_count": 7406, "total_area_ha": 1452.85}}, {"type": "Feature", "geometry": {"type": "Point", "coordinates": [121.82469374230372, 24.56790917191743]}, "properties": {"county": "宜蘭縣", "township": "蘇澳鎮", "parcel_count": 4736, "total_area_ha": 842.03}}, {"type": "Feature", "geometry": {"type": "Point", "coordinates": [121.81093105023723, 24.845054486952314]}, "properties": {"county": "宜蘭縣", "township": "頭城鎮", "parcel_count": 5619, "total_area_ha": 795.64}}, {"type": "Feature", "geometry": {"type": "Point", "coordinates": [121.77297100536792, 24.67992544091782]}, "properties": {"county": "宜蘭縣", "township": "羅東鎮", "parcel_count": 2623, "total_area_ha": 448.27}}, {"type": "Feature", "geometry": {"type": "Point", "coordinates": [121.77181716111613, 24.447397834970456]}, "properties": {"county": "宜蘭縣", "township": "南澳鄉", "parcel_count": 1807, "total_area_ha": 408.67}}, {"type": "Feature", "geometry": {"type": "Point", "coordinates": [121.06690744657129, 24.973148158264287]}, "properties": {"county": "桃園市", "township": "新屋區", "parcel_count": 26189, "total_area_ha": 5167.74}}, {"type": "Feature", "geometry": {"type": "Point", "coordinates": [121.11901614055238, 25.017251560004382]}, "properties": {"county": "桃園市", "township": "觀音區", "parcel_count": 19719, "total_area_ha": 3979.61}}, {"type": "Feature", "geometry": {"type": "Point", "coordinates": [121.20723506609468, 25.060248072286615]}, "properties": {"county": "桃園市", "township": "大園區", "parcel_count": 16817, "total_area_ha": 3249.32}}, {"type": "Feature", "geometry": {"type": "Point", "coordinates": [121.11439682050381, 24.92400634748476]}, "properties": {"county": "桃園市", "township": "楊梅區", "parcel_count": 14345, "total_area_ha": 2905.89}}, {"type": "Feature", "geometry": {"type": "Point", "coordinates": [121.20232438116852, 24.988778712929317]}, "properties": {"county": "桃園市", "township": "中壢區", "parcel_count": 15781, "total_area_ha": 2461.35}}, {"type": "Feature", "geometry": {"type": "Point", "coordinates": [121.2699980721231, 25.048004615066816]}, "properties": {"county": "桃園市", "township": "蘆竹區", "parcel_count": 12792, "total_area_ha": 1956.4}}, {"type": "Feature", "geometry": {"type": "Point", "coordinates": [121.215050566225, 24.853719727301797]}, "properties": {"county": "桃園市", "township": "龍潭區", "parcel_count": 8858, "total_area_ha": 1684.21}}, {"type": "Feature", "geometry": {"type": "Point", "coordinates": [121.28255040675019, 24.888064890777326]}, "properties": {"county": "桃園市", "township": "大溪區", "parcel_count": 10246, "total_area_ha": 1584.13}}, {"type": "Feature", "geometry": {"type": "Point", "coordinates": [121.21541787746956, 24.91881831721703]}, "properties": {"county": "桃園市", "township": "平鎮區", "parcel_count": 9168, "total_area_ha": 1443.52}}, {"type": "Feature", "geometry": {"type": "Point", "coordinates": [121.2862654619842, 24.948719169243898]}, "properties": {"county": "桃園市", "township": "八德區", "parcel_count": 7377, "total_area_ha": 1221.09}}, {"type": "Feature", "geometry": {"type": "Point", "coordinates": [121.37640746376482, 24.72775344673094]}, "properties": {"county": "桃園市", "township": "復興區", "parcel_count": 2221, "total_area_ha": 974.58}}, {"type": "Feature", "geometry": {"type": "Point", "coordinates": [121.28641966065892, 24.99700923968059]}, "properties": {"county": "桃園市", "township": "桃園區", "parcel_count": 3117, "total_area_ha": 574.31}}, {"type": "Feature", "geometry": {"type": "Point", "coordinates": [121.3456051924447, 25.03417011505736]}, "properties": {"county": "桃園市", "township": "龜山區", "parcel_count": 1608, "total_area_ha": 300.74}}, {"type": "Feature", "geometry": {"type": "Point", "coordinates": [120.4180767108098, 23.483098577101693]}, "properties": {"county": "嘉義市", "township": "西區", "parcel_count": 7007, "total_area_ha": 1248.93}}, {"type": "Feature", "geometry": {"type": "Point", "coordinates": [120.47394845577045, 23.48537555029762]}, "properties": {"county": "嘉義市", "township": "東區", "parcel_count": 3116, "total_area_ha": 685.01}}, {"type": "Feature", "geometry": {"type": "Point", "coordinates": [121.00453406049778, 24.91540340118689]}, "properties": {"county": "新竹縣", "township": "新豐鄉", "parcel_count": 11605, "total_area_ha": 2300.92}}, {"type": "Feature", "geometry": {"type": "Point", "coordinates": [121.17051292843784, 24.79174408220137]}, "properties": {"county": "新竹縣", "township": "關西鎮", "parcel_count": 11323, "total_area_ha": 2030.22}}, {"type": "Feature", "geometry": {"type": "Point", "coordinates": [121.09032873924062, 24.83935071135595]}, "properties": {"county": "新竹縣", "township": "新埔鎮", "parcel_count": 11689, "total_area_ha": 1780.16}}, {"type": "Feature", "geometry": {"type": "Point", "coordinates": [120.9891969842433, 24.840270365343375]}, "properties": {"county": "新竹縣", "township": "竹北市", "parcel_count": 12443, "total_area_ha": 1721.67}}, {"type": "Feature", "geometry": {"type": "Point", "coordinates": [121.05269590294405, 24.897853432806322]}, "properties": {"county": "新竹縣", "township": "湖口鄉", "parcel_count": 10125, "total_area_ha": 1674.04}}, {"type": "Feature", "geometry": {"type": "Point", "coordinates": [121.0611762266383, 24.755722738437367]}, "properties": {"county": "新竹縣", "township": "竹東鎮", "parcel_count": 8850, "total_area_ha": 1209.97}}, {"type": "Feature", "geometry": {"type": "Point", "coordinates": [121.2604008896019, 24.6562946360558]}, "properties": {"county": "新竹縣", "township": "尖石鄉", "parcel_count": 6721, "total_area_ha": 1094.84}}, {"type": "Feature", "geometry": {"type": "Point", "coordinates": [120.99239403079338, 24.734332759912217]}, "properties": {"county": "新竹縣", "township": "寶山鄉", "parcel_count": 5163, "total_area_ha": 1091.28}}, {"type": "Feature", "geometry": {"type": "Point", "coordinates": [121.09780745496204, 24.76709502534835]}, "properties": {"county": "新竹縣", "township": "芎林鄉", "parcel_count": 7480, "total_area_ha": 1067.18}}, {"type": "Feature", "geometry": {"type": "Point", "coordinates": [121.14063323233418, 24.71216022575038]}, "properties": {"county": "新竹縣", "township": "橫山鄉", "parcel_count": 5680, "total_area_ha": 1039.77}}, {"type": "Feature", "geometry": {"type": "Point", "coordinates": [121.00759712435618, 24.687372806890608]}, "properties": {"county": "新竹縣", "township": "峨眉鄉", "parcel_count": 4961, "total_area_ha": 950.6}}, {"type": "Feature", "geometry": {"type": "Point", "coordinates": [121.12111918995899, 24.605291558671855]}, "properties": {"county": "新竹縣", "township": "五峰鄉", "parcel_count": 2776, "total_area_ha": 683.37}}, {"type": "Feature", "geometry": {"type": "Point", "coordinates": [121.06168029683839, 24.69035247480314]}, "properties": {"county": "新竹縣", "township": "北埔鄉", "parcel_count": 3000, "total_area_ha": 647.51}}, {"type": "Feature", "geometry": {"type": "Point", "coordinates": [120.78725479488801, 24.62371540949845]}, "properties": {"county": "苗栗縣", "township": "後龍鎮", "parcel_count": 16525, "total_area_ha": 2852.31}}, {"type": "Feature", "geometry": {"type": "Point", "coordinates": [120.67700719482349, 24.411523766752506]}, "properties": {"county": "苗栗縣", "township": "苑裡鎮", "parcel_count": 14412, "total_area_ha": 2680.27}}, {"type": "Feature", "geometry": {"type": "Point", "coordinates": [120.84820622591367, 24.321502161378582]}, "properties": {"county": "苗栗縣", "township": "卓蘭鎮", "parcel_count": 7720, "total_area_ha": 2465.93}}, {"type": "Feature", "geometry": {"type": "Point", "coordinates": [120.7056459059725, 24.482563002817706]}, "properties": {"county": "苗栗縣", "township": "通霄鎮", "parcel_count": 12773, "total_area_ha": 2348.2}}, {"type": "Feature", "geometry": {"type": "Point", "coordinates": [120.86395951331042, 24.388659246686398]}, "properties": {"county": "苗栗縣", "township": "大湖鄉", "parcel_count": 11321, "total_area_ha": 1820.3}}, {"type": "Feature", "geometry": {"type": "Point", "coordinates": [120.83255813703552, 24.503684275137772]}, "properties": {"county": "苗栗縣", "township": "公館鄉", "parcel_count": 13834, "total_area_ha": 1628.82}}, {"type": "Feature", "geometry": {"type": "Point", "coordinates": [120.79562712266659, 24.474432669510097]}, "properties": {"county": "苗栗縣", "township": "銅鑼鄉", "parcel_count": 9222, "total_area_ha": 1353.2}}, {"type": "Feature", "geometry": {"type": "Point", "coordinates": [120.92064466754762, 24.680178343549546]}, "properties": {"county": "苗栗縣", "township": "頭份市", "parcel_count": 8107, "total_area_ha": 1289.61}}, {"type": "Feature", "geometry": {"type": "Point", "coordinates": [120.93835253085986, 24.41273889247107]}, "properties": {"county": "苗栗縣", "township": "泰安鄉", "parcel_count": 4968, "total_area_ha": 1116.42}}, {"type": "Feature", "geometry": {"type": "Point", "coordinates": [120.87335909461244, 24.695230085524535]}, "properties": {"county": "苗栗縣", "township": "竹南鎮", "parcel_count": 5830, "total_area_ha": 1043.79}}, {"type": "Feature", "geometry": {"type": "Point", "coordinates": [120.75881862266156, 24.542480450672773]}, "properties": {"county": "苗栗縣", "township": "西湖鄉", "parcel_count": 6717, "total_area_ha": 898.03}}, {"type": "Feature", "geometry": {"type": "Point", "coordinates": [120.95112570299803, 24.642092420935597]}, "properties": {"county": "苗栗縣", "township": "三灣鄉", "parcel_count": 4440, "total_area_ha": 828.52}}, {"type": "Feature", "geometry": {"type": "Point", "coordinates": [120.86086028999642, 24.633404487017017]}, "properties": {"county": "苗栗縣", "township": "造橋鄉", "parcel_count": 4894, "total_area_ha": 781.89}}, {"type": "Feature", "geometry": {"type": "Point", "coordinates": [120.76930667996467, 24.38223105554924]}, "properties": {"county": "苗栗縣", "township": "三義鄉", "parcel_count": 3921, "total_area_ha": 749.22}}, {"type": "Feature", "geometry": {"type": "Point", "coordinates": [120.81629598843035, 24.563777335336596]}, "properties": {"county": "苗栗縣", "township": "苗栗市", "parcel_count": 5691, "total_area_ha": 739.14}}, {"type": "Feature", "geometry": {"type": "Point", "coordinates": [120.98979122951916, 24.60081758687008]}, "properties": {"county": "苗栗縣", "township": "南庄鄉", "parcel_count": 3817, "total_area_ha": 717.73}}, {"type": "Feature", "geometry": {"type": "Point", "coordinates": [120.91948262065935, 24.51516815898467]}, "properties": {"county": "苗栗縣", "township": "獅潭鄉", "parcel_count": 1894, "total_area_ha": 587.14}}, {"type": "Feature", "geometry": {"type": "Point", "coordinates": [120.86945548896988, 24.577383236651524]}, "properties": {"county": "苗栗縣", "township": "頭屋鄉", "parcel_count": 2729, "total_area_ha": 486.3}}, {"type": "Feature", "geometry": {"type": "Point", "coordinates": [120.86128070582026, 24.034788824225483]}, "properties": {"county": "南投縣", "township": "國姓鄉", "parcel_count": 13032, "total_area_ha": 5803.66}}, {"type": "Feature", "geometry": {"type": "Point", "coordinates": [120.69791316190572, 23.730498861953635]}, "properties": {"county": "南投縣", "township": "竹山鎮", "parcel_count": 23554, "total_area_ha": 5753.69}}, {"type": "Feature", "geometry": {"type": "Point", "coordinates": [120.78509957273857, 23.905406651309665]}, "properties": {"county": "南投縣", "township": "中寮鄉", "parcel_count": 11316, "total_area_ha": 5511.55}}, {"type": "Feature", "geometry": {"type": "Point", "coordinates": [120.6720170706258, 23.850063703817796]}, "properties": {"county": "南投縣", "township": "名間鄉", "parcel_count": 29979, "total_area_ha": 5093.64}}, {"type": "Feature", "geometry": {"type": "Point", "coordinates": [121.13351475352677, 24.060376512674168]}, "properties": {"county": "南投縣", "township": "仁愛鄉", "parcel_count": 16073, "total_area_ha": 4982.49}}, {"type": "Feature", "geometry": {"type": "Point", "coordinates": [120.9520670411521, 23.981987097112427]}, "properties": {"county": "南投縣", "township": "埔里鎮", "parcel_count": 20614, "total_area_ha": 4970.65}}, {"type": "Feature", "geometry": {"type": "Point", "coordinates": [120.72294807227429, 23.98262033952547]}, "properties": {"county": "南投縣", "township": "草屯鎮", "parcel_count": 23365, "total_area_ha": 4522.11}}, {"type": "Feature", "geometry": {"type": "Point", "coordinates": [120.8868676909822, 23.668388917846592]}, "properties": {"county": "南投縣", "township": "信義鄉", "parcel_count": 12178, "total_area_ha": 4005.1}}, {"type": "Feature", "geometry": {"type": "Point", "coordinates": [120.8599510631981, 23.800311030557264]}, "properties": {"county": "南投縣", "township": "水里鄉", "parcel_count": 4996, "total_area_ha": 2979.74}}, {"type": "Feature", "geometry": {"type": "Point", "coordinates": [120.9269999865692, 23.8868050766836]}, "properties": {"county": "南投縣", "township": "魚池鄉", "parcel_count": 7008, "total_area_ha": 2932.83}}, {"type": "Feature", "geometry": {"type": "Point", "coordinates": [120.77054572086375, 23.749018675023343]}, "properties": {"county": "南投縣", "township": "鹿谷鄉", "parcel_count": 8349, "total_area_ha": 2817.8}}, {"type": "Feature", "geometry": {"type": "Point", "coordinates": [120.67511917847067, 23.91521961113722]}, "properties": {"county": "南投縣", "township": "南投市", "parcel_count": 11094, "total_area_ha": 2569.79}}, {"type": "Feature", "geometry": {"type": "Point", "coordinates": [120.78576295486441, 23.837179117888745]}, "properties": {"county": "南投縣", "township": "集集鎮", "parcel_count": 4503, "total_area_ha": 1615.56}}, {"type": "Feature", "geometry": {"type": "Point", "coordinates": [120.35459800829233, 23.95430291394439]}, "properties": {"county": "彰化縣", "township": "芳苑鄉", "parcel_count": 21532, "total_area_ha": 7442.22}}, {"type": "Feature", "geometry": {"type": "Point", "coordinates": [120.404688737228, 23.91678014795413]}, "properties": {"county": "彰化縣", "township": "二林鎮", "parcel_count": 23126, "total_area_ha": 7076.46}}, {"type": "Feature", "geometry": {"type": "Point", "coordinates": [120.52186109181179, 23.83060325426806]}, "properties": {"county": "彰化縣", "township": "溪州鄉", "parcel_count": 19098, "total_area_ha": 4347.05}}, {"type": "Feature", "geometry": {"type": "Point", "coordinates": [120.31587584824003, 23.856206791350612]}, "properties": {"county": "彰化縣", "township": "大城鄉", "parcel_count": 11616, "total_area_ha": 3667.23}}, {"type": "Feature", "geometry": {"type": "Point", "coordinates": [120.42994610046803, 24.02944702953386]}, "properties": {"county": "彰化縣", "township": "福興鄉", "parcel_count": 15403, "total_area_ha": 3393.63}}, {"type": "Feature", "geometry": {"type": "Point", "coordinates": [120.46670352967185, 23.88199071185413]}, "properties": {"county": "彰化縣", "township": "埤頭鄉", "parcel_count": 15165, "total_area_ha": 3124.91}}, {"type": "Feature", "geometry": {"type": "Point", "coordinates": [120.41426461436113, 23.853085529552366]}, "properties": {"county": "彰化縣", "township": "竹塘鄉", "parcel_count": 11054, "total_area_ha": 3005.12}}, {"type": "Feature", "geometry": {"type": "Point", "coordinates": [120.45047708779141, 24.08275150660421]}, "properties": {"county": "彰化縣", "township": "鹿港鎮", "parcel_count": 12814, "total_area_ha": 2918.43}}, {"type": "Feature", "geometry": {"type": "Point", "coordinates": [120.45899308415748, 23.992105236135103]}, "properties": {"county": "彰化縣", "township": "埔鹽鄉", "parcel_count": 12751, "total_area_ha": 2716.35}}, {"type": "Feature", "geometry": {"type": "Point", "coordinates": [120.51069297260472, 24.11292595729879]}, "properties": {"county": "彰化縣", "township": "和美鎮", "parcel_count": 12410, "total_area_ha": 2151.08}}, {"type": "Feature", "geometry": {"type": "Point", "coordinates": [120.57032854600772, 24.079213290727726]}, "properties": {"county": "彰化縣", "township": "彰化市", "parcel_count": 10761, "total_area_ha": 1891.16}}, {"type": "Feature", "geometry": {"type": "Point", "coordinates": [120.58348634962654, 23.856064773222332]}, "properties": {"county": "彰化縣", "township": "田中鎮", "parcel_count": 13923, "total_area_ha": 1888.02}}, {"type": "Feature", "geometry": {"type": "Point", "coordinates": [120.48421035281753, 23.949924824828766]}, "properties": {"county": "彰化縣", "township": "溪湖鎮", "parcel_count": 10215, "total_area_ha": 1818.38}}, {"type": "Feature", "geometry": {"type": "Point", "coordinates": [120.50424462301444, 24.031769464597073]}, "properties": {"county": "彰化縣", "township": "秀水鄉", "parcel_count": 8190, "total_area_ha": 1793.15}}, {"type": "Feature", "geometry": {"type": "Point", "coordinates": [120.59612464020489, 23.90654588200539]}, "properties": {"county": "彰化縣", "township": "社頭鄉", "parcel_count": 8201, "total_area_ha": 1767.28}}, {"type": "Feature", "geometry": {"type": "Point", "coordinates": [120.48452479007257, 24.164516591284936]}, "properties": {"county": "彰化縣", "township": "伸港鄉", "parcel_count": 7732, "total_area_ha": 1732.95}}, {"type": "Feature", "geometry": {"type": "Point", "coordinates": [120.52111341271396, 23.901189446506347]}, "properties": {"county": "彰化縣", "township": "田尾鄉", "parcel_count": 11626, "total_area_ha": 1647.34}}, {"type": "Feature", "geometry": {"type": "Point", "coordinates": [120.63422488369444, 24.009527894620458]}, "properties": {"county": "彰化縣", "township": "芬園鄉", "parcel_count": 9660, "total_area_ha": 1533.08}}, {"type": "Feature", "geometry": {"type": "Point", "coordinates": [120.54715525596811, 23.991050762097494]}, "properties": {"county": "彰化縣", "township": "大村鄉", "parcel_count": 8776, "total_area_ha": 1458.18}}, {"type": "Feature", "geometry": {"type": "Point", "coordinates": [120.6252034798607, 23.80547894299223]}, "properties": {"county": "彰化縣", "township": "二水鄉", "parcel_count": 9737, "total_area_ha": 1421.2}}, {"type": "Feature", "geometry": {"type": "Point", "coordinates": [120.5879432807872, 23.954326617940804]}, "properties": {"county": "彰化縣", "township": "員林市", "parcel_count": 8272, "total_area_ha": 1360.09}}, {"type": "Feature", "geometry": {"type": "Point", "coordinates": [120.5501988640582, 24.02960970650231]}, "properties": {"county": "彰化縣", "township": "花壇鄉", "parcel_count": 6872, "total_area_ha": 1339.51}}, {"type": "Feature", "geometry": {"type": "Point", "coordinates": [120.54044575642226, 23.921408813042827]}, "properties": {"county": "彰化縣", "township": "永靖鄉", "parcel_count": 9119, "total_area_ha": 1249.09}}, {"type": "Feature", "geometry": {"type": "Point", "coordinates": [120.53285829211046, 23.952538238559672]}, "properties": {"county": "彰化縣", "township": "埔心鄉", "parcel_count": 9170, "total_area_ha": 1207.31}}, {"type": "Feature", "geometry": {"type": "Point", "coordinates": [120.45759105552715, 24.131253146291595]}, "properties": {"county": "彰化縣", "township": "線西鄉", "parcel_count": 5142, "total_area_ha": 1202.76}}, {"type": "Feature", "geometry": {"type": "Point", "coordinates": [120.53445357779698, 23.86629763054481]}, "properties": {"county": "彰化縣", "township": "北斗鎮", "parcel_count": 8490, "total_area_ha": 1197.42}}, {"type": "Feature", "geometry": {"type": "Point", "coordinates": [120.92572417254252, 24.771187578175063]}, "properties": {"county": "新竹市", "township": "香山區", "parcel_count": 6849, "total_area_ha": 1120.94}}, {"type": "Feature", "geometry": {"type": "Point", "coordinates": [120.94322755410427, 24.828530956278662]}, "properties": {"county": "新竹市", "township": "北區", "parcel_count": 2510, "total_area_ha": 360.05}}, {"type": "Feature", "geometry": {"type": "Point", "coordinates": [120.99835254097373, 24.79970166628933]}, "properties": {"county": "新竹市", "township": "東區", "parcel_count": 2408, "total_area_ha": 359.7}}, {"type": "Feature", "geometry": {"type": "Point", "coordinates": [120.58297823168917, 23.63469552285538]}, "properties": {"county": "雲林縣", "township": "古坑鄉", "parcel_count": 16934, "total_area_ha": 7343.2}}, {"type": "Feature", "geometry": {"type": "Point", "coordinates": [120.25839063288684, 23.782468607247797]}, "properties": {"county": "雲林縣", "township": "麥寮鄉", "parcel_count": 11129, "total_area_ha": 5898.41}}, {"type": "Feature", "geometry": {"type": "Point", "coordinates": [120.32762972437833, 23.642655082471695]}, "properties": {"county": "雲林縣", "township": "元長鄉", "parcel_count": 19053, "total_area_ha": 5651.64}}, {"type": "Feature", "geometry": {"type": "Point", "coordinates": [120.23521632912264, 23.561991748131558]}, "properties": {"county": "雲林縣", "township": "水林鄉", "parcel_count": 20065, "total_area_ha": 5626.11}}, {"type": "Feature", "geometry": {"type": "Point", "coordinates": [120.21042737963155, 23.64127661394205]}, "properties": {"county": "雲林縣", "township": "四湖鄉", "parcel_count": 13338, "total_area_ha": 5444.48}}, {"type": "Feature", "geometry": {"type": "Point", "coordinates": [120.17184899342486, 23.573115757882146]}, "properties": {"county": "雲林縣", "township": "口湖鄉", "parcel_count": 12399, "total_area_ha": 5183.49}}, {"type": "Feature", "geometry": {"type": "Point", "coordinates": [120.39543247539861, 23.79140538857149]}, "properties": {"county": "雲林縣", "township": "二崙鄉", "parcel_count": 16530, "total_area_ha": 4454.57}}, {"type": "Feature", "geometry": {"type": "Point", "coordinates": [120.54789800178827, 23.70673111188956]}, "properties": {"county": "雲林縣", "township": "斗六市", "parcel_count": 15926, "total_area_ha": 4387.74}}, {"type": "Feature", "geometry": {"type": "Point", "coordinates": [120.20612548877607, 23.716909388395568]}, "properties": {"county": "雲林縣", "township": "臺西鄉", "parcel_count": 10332, "total_area_ha": 4323.48}}, {"type": "Feature", "geometry": {"type": "Point", "coordinates": [120.33296477896998, 23.778294052892214]}, "properties": {"county": "雲林縣", "township": "崙背鄉", "parcel_count": 11510, "total_area_ha": 4286.51}}, {"type": "Feature", "geometry": {"type": "Point", "coordinates": [120.42824143258083, 23.716983471218782]}, "properties": {"county": "雲林縣", "township": "虎尾鎮", "parcel_count": 14941, "total_area_ha": 4041.97}}, {"type": "Feature", "geometry": {"type": "Point", "coordinates": [120.52759346990582, 23.767452963882903]}, "properties": {"county": "雲林縣", "township": "莿桐鄉", "parcel_count": 14423, "total_area_ha": 3768.06}}, {"type": "Feature", "geometry": {"type": "Point", "coordinates": [120.25629673790314, 23.696427324343222]}, "properties": {"county": "雲林縣", "township": "東勢鄉", "parcel_count": 10460, "total_area_ha": 3627.82}}, {"type": "Feature", "geometry": {"type": "Point", "coordinates": [120.36383332416774, 23.691424626537508]}, "properties": {"county": "雲林縣", "township": "土庫鎮", "parcel_count": 13223, "total_area_ha": 3597.72}}, {"type": "Feature", "geometry": {"type": "Point", "coordinates": [120.42493099527157, 23.645920365937556]}, "properties": {"county": "雲林縣", "township": "大埤鄉", "parcel_count": 12288, "total_area_ha": 3346.61}}, {"type": "Feature", "geometry": {"type": "Point", "coordinates": [120.45725222214877, 23.775572410526145]}, "properties": {"county": "雲林縣", "township": "西螺鎮", "parcel_count": 12696, "total_area_ha": 3251.64}}, {"type": "Feature", "geometry": {"type": "Point", "coordinates": [120.48392268586095, 23.668937512542133]}, "properties": {"county": "雲林縣", "township": "斗南鎮", "parcel_count": 11364, "total_area_ha": 3121.88}}, {"type": "Feature", "geometry": {"type": "Point", "coordinates": [120.292861711279, 23.595161786944114]}, "properties": {"county": "雲林縣", "township": "北港鎮", "parcel_count": 8795, "total_area_ha": 2806.66}}, {"type": "Feature", "geometry": {"type": "Point", "coordinates": [120.31248004300663, 23.717111957293568]}, "properties": {"county": "雲林縣", "township": "褒忠鄉", "parcel_count": 5986, "total_area_ha": 2749.63}}, {"type": "Feature", "geometry": {"type": "Point", "coordinates": [120.60405462550493, 23.758863518983265]}, "properties": {"county": "雲林縣", "township": "林內鄉", "parcel_count": 10922, "total_area_ha": 2125.67}}, {"type": "Feature", "geometry": {"type": "Point", "coordinates": [120.53474205575522, 23.40729602595324]}, "properties": {"county": "嘉義縣", "township": "中埔鄉", "parcel_count": 22424, "total_area_ha": 7691.33}}, {"type": "Feature", "geometry": {"type": "Point", "coordinates": [120.22456954817284, 23.347147051514916]}, "properties": {"county": "嘉義縣", "township": "義竹鄉", "parcel_count": 16451, "total_area_ha": 6108.15}}, {"type": "Feature", "geometry": {"type": "Point", "coordinates": [120.17359186861819, 23.469329467469823]}, "properties": {"county": "嘉義縣", "township": "東石鄉", "parcel_count": 15372, "total_area_ha": 5689.28}}, {"type": "Feature", "geometry": {"type": "Point", "coordinates": [120.56958370787616, 23.506551132277888]}, "properties": {"county": "嘉義縣", "township": "竹崎鄉", "parcel_count": 17182, "total_area_ha": 5576.32}}, {"type": "Feature", "geometry": {"type": "Point", "coordinates": [120.18161051076935, 23.377032461173908]}, "properties": {"county": "嘉義縣", "township": "布袋鎮", "parcel_count": 10503, "total_area_ha": 5433.32}}, {"type": "Feature", "geometry": {"type": "Point", "coordinates": [120.43849681368397, 23.544506331219083]}, "properties": {"county": "嘉義縣", "township": "民雄鄉", "parcel_count": 21878, "total_area_ha": 5068.48}}, {"type": "Feature", "geometry": {"type": "Point", "coordinates": [120.34799754136314, 23.54658043291027]}, "properties": {"county": "嘉義縣", "township": "新港鄉", "parcel_count": 18134, "total_area_ha": 4973.83}}, {"type": "Feature", "geometry": {"type": "Point", "coordinates": [120.34240233215071, 23.472052457584866]}, "properties": {"county": "嘉義縣", "township": "太保市", "parcel_count": 15458, "total_area_ha": 4699.04}}, {"type": "Feature", "geometry": {"type": "Point", "coordinates": [120.27127995214279, 23.509481966523943]}, "properties": {"county": "嘉義縣", "township": "六腳鄉", "parcel_count": 16147, "total_area_ha": 4527.75}}, {"type": "Feature", "geometry": {"type": "Point", "coordinates": [120.30379709058033, 23.408317829740195]}, "properties": {"county": "嘉義縣", "township": "鹿草鄉", "parcel_count": 11649, "total_area_ha": 4112.43}}, {"type": "Feature", "geometry": {"type": "Point", "coordinates": [120.4064489348321, 23.430349026612934]}, "properties": {"county": "嘉義縣", "township": "水上鄉", "parcel_count": 13539, "total_area_ha": 4097.05}}, {"type": "Feature", "geometry": {"type": "Point", "coordinates": [120.61228765930875, 23.56056991612494]}, "properties": {"county": "嘉義縣", "township": "梅山鄉", "parcel_count": 11696, "total_area_ha": 4021.58}}, {"type": "Feature", "geometry": {"type": "Point", "coordinates": [120.47733303593694, 23.602020850685847]}, "properties": {"county": "嘉義縣", "township": "大林鎮", "parcel_count": 13881, "total_area_ha": 3707.15}}, {"type": "Feature", "geometry": {"type": "Point", "coordinates": [120.2531272044048, 23.44378146510928]}, "properties": {"county": "嘉義縣", "township": "朴子市", "parcel_count": 12863, "total_area_ha": 3694.73}}, {"type": "Feature", "geometry": {"type": "Point", "coordinates": [120.6034266544364, 23.435208072110612]}, "properties": {"county": "嘉義縣", "township": "番路鄉", "parcel_count": 9159, "total_area_ha": 3502.03}}, {"type": "Feature", "geometry": {"type": "Point", "coordinates": [120.4007413233377, 23.592889575386167]}, "properties": {"county": "嘉義縣", "township": "溪口鄉", "parcel_count": 9767, "total_area_ha": 2468.93}}, {"type": "Feature", "geometry": {"type": "Point", "coordinates": [120.58875786244829, 23.301454713703496]}, "properties": {"county": "嘉義縣", "township": "大埔鄉", "parcel_count": 2690, "total_area_ha": 1609.45}}, {"type": "Feature", "geometry": {"type": "Point", "coordinates": [120.70988277435161, 23.409959557707477]}, "properties": {"county": "嘉義縣", "township": "阿里山鄉", "parcel_count": 7708, "total_area_ha": 1454.42}}, {"type": "Feature", "geometry": {"type": "Point", "coordinates": [120.60292876098417, 22.806620800060507]}, "properties": {"county": "屏東縣", "township": "高樹鄉", "parcel_count": 24150, "total_area_ha": 5675.99}}, {"type": "Feature", "geometry": {"type": "Point", "coordinates": [120.58741329519809, 22.65229174836364]}, "properties": {"county": "屏東縣", "township": "內埔鄉", "parcel_count": 15020, "total_area_ha": 5527.25}}, {"type": "Feature", "geometry": {"type": "Point", "coordinates": [120.60103500213407, 22.581041348228176]}, "properties": {"county": "屏東縣", "township": "萬巒鄉", "parcel_count": 13061, "total_area_ha": 4751.97}}, {"type": "Feature", "geometry": {"type": "Point", "coordinates": [120.59833245266087, 22.404468795488864]}, "properties": {"county": "屏東縣", "township": "枋寮鄉", "parcel_count": 10781, "total_area_ha": 4338.31}}, {"type": "Feature", "geometry": {"type": "Point", "coordinates": [120.4786318613837, 22.588102857324227]}, "properties": {"county": "屏東縣", "township": "萬丹鄉", "parcel_count": 18057, "total_area_ha": 4268.79}}, {"type": "Feature", "geometry": {"type": "Point", "coordinates": [120.58300703882782, 22.487761888463055]}, "properties": {"county": "屏東縣", "township": "新埤鄉", "parcel_count": 8899, "total_area_ha": 4198.46}}, {"type": "Feature", "geometry": {"type": "Point", "coordinates": [120.56574094932228, 22.742008289552555]}, "properties": {"county": "屏東縣", "township": "鹽埔鄉", "parcel_count": 11645, "total_area_ha": 4130.96}}, {"type": "Feature", "geometry": {"type": "Point", "coordinates": [120.74274617398147, 21.98707908108452]}, "properties": {"county": "屏東縣", "township": "恆春鎮", "parcel_count": 11455, "total_area_ha": 3857.92}}, {"type": "Feature", "geometry": {"type": "Point", "coordinates": [120.50301193235666, 22.79816750753571]}, "properties": {"county": "屏東縣", "township": "里港鄉", "parcel_count": 11564, "total_area_ha": 3523.6}}, {"type": "Feature", "geometry": {"type": "Point", "coordinates": [120.55838802540586, 22.69457601528677]}, "properties": {"county": "屏東縣", "township": "長治鄉", "parcel_count": 9194, "total_area_ha": 3487.43}}, {"type": "Feature", "geometry": {"type": "Point", "coordinates": [120.560497809949, 22.53530739154133]}, "properties": {"county": "屏東縣", "township": "潮州鎮", "parcel_count": 7914, "total_area_ha": 3003.94}}, {"type": "Feature", "geometry": {"type": "Point", "coordinates": [120.4885593122296, 22.733564899385236]}, "properties": {"county": "屏東縣", "township": "九如鄉", "parcel_count": 9277, "total_area_ha": 2994.55}}, {"type": "Feature", "geometry": {"type": "Point", "coordinates": [120.48315974031334, 22.6595236863655]}, "properties": {"county": "屏東縣", "township": "屏東市", "parcel_count": 10775, "total_area_ha": 2721.72}}, {"type": "Feature", "geometry": {"type": "Point", "coordinates": [120.45182052293215, 22.51981411969718]}, "properties": {"county": "屏東縣", "township": "新園鄉", "parcel_count": 10596, "total_area_ha": 2667.9}}, {"type": "Feature", "geometry": {"type": "Point", "coordinates": [120.54851229576606, 22.429421853413345]}, "properties": {"county": "屏東縣", "township": "佳冬鄉", "parcel_count": 9759, "total_area_ha": 2034.52}}, {"type": "Feature", "geometry": {"type": "Point", "coordinates": [120.50167742862193, 22.515173133389265]}, "properties": {"county": "屏東縣", "township": "崁頂鄉", "parcel_count": 6404, "total_area_ha": 1904.7}}, {"type": "Feature", "geometry": {"type": "Point", "coordinates": [120.52723680727472, 22.590123721914942]}, "properties": {"county": "屏東縣", "township": "竹田鄉", "parcel_count": 7169, "total_area_ha": 1890.44}}, {"type": "Feature", "geometry": {"type": "Point", "coordinates": [120.51854508317822, 22.47904264684871]}, "properties": {"county": "屏東縣", "township": "南州鄉", "parcel_count": 5013, "total_area_ha": 1493.54}}, {"type": "Feature", "geometry": {"type": "Point", "coordinates": [120.64920345921482, 22.770359570958366]}, "properties": {"county": "屏東縣", "township": "三地門鄉", "parcel_count": 2164, "total_area_ha": 1436.35}}, {"type": "Feature", "geometry": {"type": "Point", "coordinates": [120.83110479371838, 22.038048162549668]}, "properties": {"county": "屏東縣", "township": "滿州鄉", "parcel_count": 2833, "total_area_ha": 1400.08}}, {"type": "Feature", "geometry": {"type": "Point", "coordinates": [120.684493561057, 22.263734002959346]}, "properties": {"county": "屏東縣", "township": "獅子鄉", "parcel_count": 1907, "total_area_ha": 1336.09}}, {"type": "Feature", "geometry": {"type": "Point", "coordinates": [120.4808463244663, 22.467808344590576]}, "properties": {"county": "屏東縣", "township": "東港鎮", "parcel_count": 4685, "total_area_ha": 1327.63}}, {"type": "Feature", "geometry": {"type": "Point", "coordinates": [120.64299046590158, 22.491501210844753]}, "properties": {"county": "屏東縣", "township": "來義鄉", "parcel_count": 2929, "total_area_ha": 1183.38}}, {"type": "Feature", "geometry": {"type": "Point", "coordinates": [120.51265339213899, 22.443018636984807]}, "properties": {"county": "屏東縣", "township": "林邊鄉", "parcel_count": 3521, "total_area_ha": 1056.04}}, {"type": "Feature", "geometry": {"type": "Point", "coordinates": [120.52970055306942, 22.648413016219596]}, "properties": {"county": "屏東縣", "township": "麟洛鄉", "parcel_count": 3238, "total_area_ha": 1003.66}}, {"type": "Feature", "geometry": {"type": "Point", "coordinates": [120.72856914312584, 22.075830899338293]}, "properties": {"county": "屏東縣", "township": "車城鄉", "parcel_count": 5100, "total_area_ha": 975.7}}, {"type": "Feature", "geometry": {"type": "Point", "coordinates": [120.6564860345763, 22.274314469941718]}, "properties": {"county": "屏東縣", "township": "枋山鄉", "parcel_count": 2858, "total_area_ha": 834.25}}, {"type": "Feature", "geometry": {"type": "Point", "coordinates": [120.64185577799408, 22.391921681564398]}, "properties": {"county": "屏東縣", "township": "春日鄉", "parcel_count": 901, "total_area_ha": 723.25}}, {"type": "Feature", "geometry": {"type": "Point", "coordinates": [120.65145436809239, 22.5962093294377]}, "properties": {"county": "屏東縣", "township": "泰武鄉", "parcel_count": 1210, "total_area_ha": 630.72}}, {"type": "Feature", "geometry": {"type": "Point", "coordinates": [120.81301710711698, 22.14943349565362]}, "properties": {"county": "屏東縣", "township": "牡丹鄉", "parcel_count": 1073, "total_area_ha": 416.39}}, {"type": "Feature", "geometry": {"type": "Point", "coordinates": [120.65358345149276, 22.66795242780099]}, "properties": {"county": "屏東縣", "township": "瑪家鄉", "parcel_count": 430, "total_area_ha": 284.5}}, {"type": "Feature", "geometry": {"type": "Point", "coordinates": [120.73309148312849, 22.752297006220648]}, "properties": {"county": "屏東縣", "township": "霧臺鄉", "parcel_count": 205, "total_area_ha": 92.19}}, {"type": "Feature", "geometry": {"type": "Point", "coordinates": [120.37088986823423, 22.34264100279204]}, "properties": {"county": "屏東縣", "township": "琉球鄉", "parcel_count": 610, "total_area_ha": 45.4}}, {"type": "Feature", "geometry": {"type": "Point", "coordinates": [121.46621892487578, 23.743187563261355]}, "properties": {"county": "花蓮縣", "township": "鳳林鎮", "parcel_count": 11993, "total_area_ha": 7520.97}}, {"type": "Feature", "geometry": {"type": "Point", "coordinates": [121.34822807396944, 23.37174356342878]}, "properties": {"county": "花蓮縣", "township": "玉里鎮", "parcel_count": 20876, "total_area_ha": 6262.96}}, {"type": "Feature", "geometry": {"type": "Point", "coordinates": [121.51929877917917, 23.85728541360883]}, "properties": {"county": "花蓮縣", "township": "壽豐鄉", "parcel_count": 12313, "total_area_ha": 5979.97}}, {"type": "Feature", "geometry": {"type": "Point", "coordinates": [121.41950876122823, 23.642012772455555]}, "properties": {"county": "花蓮縣", "township": "光復鄉", "parcel_count": 10327, "total_area_ha": 5319.99}}, {"type": "Feature", "geometry": {"type": "Point", "coordinates": [121.38035697051004, 23.51957514059624]}, "properties": {"county": "花蓮縣", "township": "瑞穗鄉", "parcel_count": 11879, "total_area_ha": 4495.46}}, {"type": "Feature", "geometry": {"type": "Point", "coordinates": [121.27975736358556, 23.206930271778475]}, "properties": {"county": "花蓮縣", "township": "富里鄉", "parcel_count": 17860, "total_area_ha": 4004.63}}, {"type": "Feature", "geometry": {"type": "Point", "coordinates": [121.56640606369696, 23.95397309115873]}, "properties": {"county": "花蓮縣", "township": "吉安鄉", "parcel_count": 14972, "total_area_ha": 2576.11}}, {"type": "Feature", "geometry": {"type": "Point", "coordinates": [121.388837041449, 23.658658207829948]}, "properties": {"county": "花蓮縣", "township": "萬榮鄉", "parcel_count": 4146, "total_area_ha": 1853.52}}, {"type": "Feature", "geometry": {"type": "Point", "coordinates": [121.2790855918802, 23.33162166990293]}, "properties": {"county": "花蓮縣", "township": "卓溪鄉", "parcel_count": 3248, "total_area_ha": 1678.13}}, {"type": "Feature", "geometry": {"type": "Point", "coordinates": [121.5623579380074, 24.05727613824476]}, "properties": {"county": "花蓮縣", "township": "秀林鄉", "parcel_count": 3173, "total_area_ha": 1334.85}}, {"type": "Feature", "geometry": {"type": "Point", "coordinates": [121.51489566453209, 23.588365336998258]}, "properties": {"county": "花蓮縣", "township": "豐濱鄉", "parcel_count": 4268, "total_area_ha": 892.24}}, {"type": "Feature", "geometry": {"type": "Point", "coordinates": [121.61416122935353, 24.06753356610452]}, "properties": {"county": "花蓮縣", "township": "新城鄉", "parcel_count": 2780, "total_area_ha": 849.96}}, {"type": "Feature", "geometry": {"type": "Point", "coordinates": [121.59751179516422, 24.001497312134887]}, "properties": {"county": "花蓮縣", "township": "花蓮市", "parcel_count": 1927, "total_area_ha": 458.42}}, {"type": "Feature", "geometry": {"type": "Point", "coordinates": [121.10075491169759, 22.747278111250733]}, "properties": {"county": "臺東縣", "township": "臺東市", "parcel_count": 18098, "total_area_ha": 5341.15}}, {"type": "Feature", "geometry": {"type": "Point", "coordinates": [121.09572405643755, 22.817371501474103]}, "properties": {"county": "臺東縣", "township": "卑南鄉", "parcel_count": 10774, "total_area_ha": 4250.37}}, {"type": "Feature", "geometry": {"type": "Point", "coordinates": [121.14176570762741, 22.945931860279146]}, "properties": {"county": "臺東縣", "township": "鹿野鄉", "parcel_count": 11668, "total_area_ha": 3055.78}}, {"type": "Feature", "geometry": {"type": "Point", "coordinates": [121.25504324616821, 22.952108024568965]}, "properties": {"county": "臺東縣", "township": "東河鄉", "parcel_count": 10533, "total_area_ha": 2902.83}}, {"type": "Feature", "geometry": {"type": "Point", "coordinates": [121.21010723367215, 23.105341098686463]}, "properties": {"county": "臺東縣", "township": "池上鄉", "parcel_count": 9054, "total_area_ha": 2894.06}}, {"type": "Feature", "geometry": {"type": "Point", "coordinates": [121.17052923720556, 23.047603648050078]}, "properties": {"county": "臺東縣", "township": "關山鎮", "parcel_count": 10153, "total_area_ha": 2665.67}}, {"type": "Feature", "geometry": {"type": "Point", "coordinates": [120.99643810502171, 22.620623678409686]}, "properties": {"county": "臺東縣", "township": "太麻里鄉", "parcel_count": 5832, "total_area_ha": 2507.79}}, {"type": "Feature", "geometry": {"type": "Point", "coordinates": [121.44076818716958, 23.325712482896623]}, "properties": {"county": "臺東縣", "township": "長濱鄉", "parcel_count": 11181, "total_area_ha": 2144.41}}, {"type": "Feature", "geometry": {"type": "Point", "coordinates": [121.36283776440888, 23.102307142033567]}, "properties": {"county": "臺東縣", "township": "成功鎮", "parcel_count": 11945, "total_area_ha": 1900.2}}, {"type": "Feature", "geometry": {"type": "Point", "coordinates": [121.13230244176842, 23.109410581308232]}, "properties": {"county": "臺東縣", "township": "海端鄉", "parcel_count": 2656, "total_area_ha": 1192.85}}, {"type": "Feature", "geometry": {"type": "Point", "coordinates": [121.1114112419951, 22.908591136990236]}, "properties": {"county": "臺東縣", "township": "延平鄉", "parcel_count": 3005, "total_area_ha": 1088.91}}, {"type": "Feature", "geometry": {"type": "Point", "coordinates": [120.95927882137718, 22.614192125489385]}, "properties": {"county": "臺東縣", "township": "金峰鄉", "parcel_count": 2074, "total_area_ha": 1007.31}}, {"type": "Feature", "geometry": {"type": "Point", "coordinates": [120.88151342732807, 22.413796366531887]}, "properties": {"county": "臺東縣", "township": "達仁鄉", "parcel_count": 1680, "total_area_ha": 740.05}}, {"type": "Feature", "geometry": {"type": "Point", "coordinates": [120.89917062261291, 22.37867559026881]}, "properties": {"county": "臺東縣", "township": "大武鄉", "parcel_count": 1285, "total_area_ha": 546.4}}, {"type": "Feature", "geometry": {"type": "Point", "coordinates": [121.54615459987077, 22.051689948286278]}, "properties": {"county": "臺東縣", "township": "蘭嶼鄉", "parcel_count": 2183, "total_area_ha": 209.96}}, {"type": "Feature", "geometry": {"type": "Point", "coordinates": [121.48614142013747, 22.665833450552014]}, "properties": {"county": "臺東縣", "township": "綠島鄉", "parcel_count": 379, "total_area_ha": 53.77}}]}